CCSDS_OMM_VERS = 2.0
CREATION_DATE  = 
ORIGINATOR     = 

OBJECT_NAME    = ATLAS CENTAUR R/B
OBJECT_ID      = 1972-065B
CENTER_NAME    = EARTH
REF_FRAME      = TEME
TIME_SYSTEM    = UTC
MEAN_ELEMENT_THEORY = SGP/SGP4

EPOCH          = 2026-02-27T23:07:47.600832
MEAN_MOTION    = 14.77654271
ECCENTRICITY   = .0034426
INCLINATION    = 35.0029
RA_OF_ASC_NODE = 2.7489
ARG_OF_PERICENTER = 287.8250
MEAN_ANOMALY   = 71.8697

EPHEMERIS_TYPE = 0
CLASSIFICATION_TYPE = U
NORAD_CAT_ID   = 6155
ELEMENT_SET_NO = 999
REV_AT_EPOCH   = 83982
BSTAR          = .20293E-3
MEAN_MOTION_DOT = .1467E-4
MEAN_MOTION_DDOT = 0

CCSDS_OMM_VERS = 2.0
CREATION_DATE  = 
ORIGINATOR     = 

OBJECT_NAME    = SL-8 R/B
OBJECT_ID      = 1975-112B
CENTER_NAME    = EARTH
REF_FRAME      = TEME
TIME_SYSTEM    = UTC
MEAN_ELEMENT_THEORY = SGP/SGP4

EPOCH          = 2026-02-28T06:02:24.698400
MEAN_MOTION    = 14.38197151
ECCENTRICITY   = .001466
INCLINATION    = 74.0609
RA_OF_ASC_NODE = 36.2730
ARG_OF_PERICENTER = 133.3041
MEAN_ANOMALY   = 226.9339

EPHEMERIS_TYPE = 0
CLASSIFICATION_TYPE = U
NORAD_CAT_ID   = 8459
ELEMENT_SET_NO = 999
REV_AT_EPOCH   = 63051
BSTAR          = .83349027E-4
MEAN_MOTION_DOT = .227E-5
MEAN_MOTION_DDOT = 0

CCSDS_OMM_VERS = 2.0
CREATION_DATE  = 
ORIGINATOR     = 

OBJECT_NAME    = SL-3 R/B
OBJECT_ID      = 1977-057B
CENTER_NAME    = EARTH
REF_FRAME      = TEME
TIME_SYSTEM    = UTC
MEAN_ELEMENT_THEORY = SGP/SGP4

EPOCH          = 2026-02-28T04:48:25.956288
MEAN_MOTION    = 15.45178447
ECCENTRICITY   = .00065675
INCLINATION    = 97.5753
RA_OF_ASC_NODE = 230.7064
ARG_OF_PERICENTER = 324.3948
MEAN_ANOMALY   = 35.6862

EPHEMERIS_TYPE = 0
CLASSIFICATION_TYPE = U
NORAD_CAT_ID   = 10114
ELEMENT_SET_NO = 999
REV_AT_EPOCH   = 66686
BSTAR          = .30168969E-3
MEAN_MOTION_DOT = .14234E-3
MEAN_MOTION_DDOT = 0

CCSDS_OMM_VERS = 2.0
CREATION_DATE  = 
ORIGINATOR     = 

OBJECT_NAME    = SEASAT 1
OBJECT_ID      = 1978-064A
CENTER_NAME    = EARTH
REF_FRAME      = TEME
TIME_SYSTEM    = UTC
MEAN_ELEMENT_THEORY = SGP/SGP4

EPOCH          = 2026-02-28T02:07:40.816704
MEAN_MOTION    = 14.46151632
ECCENTRICITY   = .00020634
INCLINATION    = 108.0134
RA_OF_ASC_NODE = 105.3525
ARG_OF_PERICENTER = 289.5819
MEAN_ANOMALY   = 70.5103

EPHEMERIS_TYPE = 0
CLASSIFICATION_TYPE = U
NORAD_CAT_ID   = 10967
ELEMENT_SET_NO = 999
REV_AT_EPOCH   = 50512
BSTAR          = .10428671E-3
MEAN_MOTION_DOT = .235E-5
MEAN_MOTION_DDOT = 0

CCSDS_OMM_VERS = 2.0
CREATION_DATE  = 
ORIGINATOR     = 

OBJECT_NAME    = SL-14 R/B
OBJECT_ID      = 1979-011B
CENTER_NAME    = EARTH
REF_FRAME      = TEME
TIME_SYSTEM    = UTC
MEAN_ELEMENT_THEORY = SGP/SGP4

EPOCH          = 2026-02-28T04:34:32.435616
MEAN_MOTION    = 14.91895175
ECCENTRICITY   = .00176564
INCLINATION    = 82.5221
RA_OF_ASC_NODE = 105.5863
ARG_OF_PERICENTER = 89.5701
MEAN_ANOMALY   = 270.7542

EPHEMERIS_TYPE = 0
CLASSIFICATION_TYPE = U
NORAD_CAT_ID   = 11267
ELEMENT_SET_NO = 999
REV_AT_EPOCH   = 52736
BSTAR          = .54372711E-4
MEAN_MOTION_DOT = .577E-5
MEAN_MOTION_DDOT = 0

CCSDS_OMM_VERS = 2.0
CREATION_DATE  = 
ORIGINATOR     = 

OBJECT_NAME    = SL-8 R/B
OBJECT_ID      = 1979-089B
CENTER_NAME    = EARTH
REF_FRAME      = TEME
TIME_SYSTEM    = UTC
MEAN_ELEMENT_THEORY = SGP/SGP4

EPOCH          = 2026-02-28T05:50:16.681632
MEAN_MOTION    = 14.42343520
ECCENTRICITY   = .00170661
INCLINATION    = 74.0676
RA_OF_ASC_NODE = 108.5316
ARG_OF_PERICENTER = 282.1597
MEAN_ANOMALY   = 77.7648

EPHEMERIS_TYPE = 0
CLASSIFICATION_TYPE = U
NORAD_CAT_ID   = 11574
ELEMENT_SET_NO = 999
REV_AT_EPOCH   = 43474
BSTAR          = .73595477E-4
MEAN_MOTION_DOT = .217E-5
MEAN_MOTION_DDOT = 0

CCSDS_OMM_VERS = 2.0
CREATION_DATE  = 
ORIGINATOR     = 

OBJECT_NAME    = SL-14 R/B
OBJECT_ID      = 1980-005B
CENTER_NAME    = EARTH
REF_FRAME      = TEME
TIME_SYSTEM    = UTC
MEAN_ELEMENT_THEORY = SGP/SGP4

EPOCH          = 2026-02-28T04:44:17.803392
MEAN_MOTION    = 14.90917051
ECCENTRICITY   = .00153266
INCLINATION    = 82.5162
RA_OF_ASC_NODE = 316.2392
ARG_OF_PERICENTER = 189.5544
MEAN_ANOMALY   = 170.5386

EPHEMERIS_TYPE = 0
CLASSIFICATION_TYPE = U
NORAD_CAT_ID   = 11672
ELEMENT_SET_NO = 999
REV_AT_EPOCH   = 47507
BSTAR          = .60475825E-4
MEAN_MOTION_DOT = .623E-5
MEAN_MOTION_DDOT = 0

CCSDS_OMM_VERS = 2.0
CREATION_DATE  = 
ORIGINATOR     = 

OBJECT_NAME    = SL-8 R/B
OBJECT_ID      = 1981-003B
CENTER_NAME    = EARTH
REF_FRAME      = TEME
TIME_SYSTEM    = UTC
MEAN_ELEMENT_THEORY = SGP/SGP4

EPOCH          = 2026-02-28T03:09:26.282880
MEAN_MOTION    = 15.10557805
ECCENTRICITY   = .02627784
INCLINATION    = 82.9402
RA_OF_ASC_NODE = 298.8599
ARG_OF_PERICENTER = 211.8354
MEAN_ANOMALY   = 146.6768

EPHEMERIS_TYPE = 0
CLASSIFICATION_TYPE = U
NORAD_CAT_ID   = 12139
ELEMENT_SET_NO = 999
REV_AT_EPOCH   = 31323
BSTAR          = .43367712E-3
MEAN_MOTION_DOT = .16713E-3
MEAN_MOTION_DDOT = 0

CCSDS_OMM_VERS = 2.0
CREATION_DATE  = 
ORIGINATOR     = 

OBJECT_NAME    = SL-3 R/B
OBJECT_ID      = 1981-046B
CENTER_NAME    = EARTH
REF_FRAME      = TEME
TIME_SYSTEM    = UTC
MEAN_ELEMENT_THEORY = SGP/SGP4

EPOCH          = 2026-02-28T05:52:04.577088
MEAN_MOTION    = 15.41708235
ECCENTRICITY   = .00203197
INCLINATION    = 81.2322
RA_OF_ASC_NODE = 301.0833
ARG_OF_PERICENTER = 54.0393
MEAN_ANOMALY   = 306.2731

EPHEMERIS_TYPE = 0
CLASSIFICATION_TYPE = U
NORAD_CAT_ID   = 12465
ELEMENT_SET_NO = 999
REV_AT_EPOCH   = 43697
BSTAR          = .29301328E-3
MEAN_MOTION_DOT = .12494E-3
MEAN_MOTION_DDOT = 0

CCSDS_OMM_VERS = 2.0
CREATION_DATE  = 
ORIGINATOR     = 

OBJECT_NAME    = SL-3 R/B
OBJECT_ID      = 1981-103B
CENTER_NAME    = EARTH
REF_FRAME      = TEME
TIME_SYSTEM    = UTC
MEAN_ELEMENT_THEORY = SGP/SGP4

EPOCH          = 2026-02-28T05:38:37.481856
MEAN_MOTION    = 15.21238843
ECCENTRICITY   = .00127238
INCLINATION    = 81.1565
RA_OF_ASC_NODE = 224.5228
ARG_OF_PERICENTER = 320.3773
MEAN_ANOMALY   = 39.6527

EPHEMERIS_TYPE = 0
CLASSIFICATION_TYPE = U
NORAD_CAT_ID   = 12904
ELEMENT_SET_NO = 999
REV_AT_EPOCH   = 97179
BSTAR          = .23851456E-3
MEAN_MOTION_DOT = .536E-4
MEAN_MOTION_DDOT = 0

CCSDS_OMM_VERS = 2.0
CREATION_DATE  = 
ORIGINATOR     = 

OBJECT_NAME    = SL-3 R/B
OBJECT_ID      = 1982-013B
CENTER_NAME    = EARTH
REF_FRAME      = TEME
TIME_SYSTEM    = UTC
MEAN_ELEMENT_THEORY = SGP/SGP4

EPOCH          = 2026-02-28T07:30:41.813280
MEAN_MOTION    = 15.21899798
ECCENTRICITY   = .00221788
INCLINATION    = 81.1765
RA_OF_ASC_NODE = 171.7573
ARG_OF_PERICENTER = 209.2698
MEAN_ANOMALY   = 150.7293

EPHEMERIS_TYPE = 0
CLASSIFICATION_TYPE = U
NORAD_CAT_ID   = 13068
ELEMENT_SET_NO = 999
REV_AT_EPOCH   = 40292
BSTAR          = .25525112E-3
MEAN_MOTION_DOT = .5874E-4
MEAN_MOTION_DDOT = 0

CCSDS_OMM_VERS = 2.0
CREATION_DATE  = 
ORIGINATOR     = 

OBJECT_NAME    = SL-3 R/B
OBJECT_ID      = 1982-039B
CENTER_NAME    = EARTH
REF_FRAME      = TEME
TIME_SYSTEM    = UTC
MEAN_ELEMENT_THEORY = SGP/SGP4

EPOCH          = 2026-02-28T05:56:18.358080
MEAN_MOTION    = 15.10015130
ECCENTRICITY   = .00299402
INCLINATION    = 81.1582
RA_OF_ASC_NODE = 226.8474
ARG_OF_PERICENTER = 355.2780
MEAN_ANOMALY   = 4.8158

EPHEMERIS_TYPE = 0
CLASSIFICATION_TYPE = U
NORAD_CAT_ID   = 13154
ELEMENT_SET_NO = 999
REV_AT_EPOCH   = 38021
BSTAR          = .16961715E-3
MEAN_MOTION_DOT = .2808E-4
MEAN_MOTION_DDOT = 0

