ATLAS CENTAUR R/B       
1 06155U 72065B   26058.96374538  .00001467  00000+0  20293-3 0  9999
2 06155  35.0029   2.7489 0034426 287.8250  71.8697 14.77654271839821
SL-8 R/B                
1 08459U 75112B   26059.25167475  .00000227  00000+0  83349-4 0  9992
2 08459  74.0609  36.2730 0014660 133.3041 226.9339 14.38197151630516
SL-3 R/B                
1 10114U 77057B   26059.20030042  .00014234  00000+0  30169-3 0  9991
2 10114  97.5753 230.7064 0006567 324.3948  35.6862 15.45178447666862
SEASAT 1                
1 10967U 78064A   26059.08866686  .00000235  00000+0  10429-3 0  9996
2 10967 108.0134 105.3525 0002063 289.5819  70.5103 14.46151632505128
SL-14 R/B               
1 11267U 79011B   26059.19065319  .00000577  00000+0  54373-4 0  9995
2 11267  82.5221 105.5863 0017656  89.5701 270.7542 14.91895175527362
SL-8 R/B                
1 11574U 79089B   26059.24324863  .00000217  00000+0  73595-4 0  9997
2 11574  74.0676 108.5316 0017066 282.1597  77.7648 14.42343520434747
SL-14 R/B               
1 11672U 80005B   26059.19742828  .00000623  00000+0  60476-4 0  9990
2 11672  82.5162 316.2392 0015326 189.5544 170.5386 14.90917051475072
SL-8 R/B                
1 12139U 81003B   26059.13155420  .00016713  00000+0  43368-3 0  9995
2 12139  82.9402 298.8599 0262778 211.8354 146.6768 15.10557805313236
SL-3 R/B                
1 12465U 81046B   26059.24449742  .00012494  00000+0  29301-3 0  9992
2 12465  81.2322 301.0833 0020319  54.0393 306.2731 15.41708235436972
SL-3 R/B                
1 12904U 81103B   26059.23515604  .00005360  00000+0  23851-3 0  9992
2 12904  81.1565 224.5228 0012723 320.3773  39.6527 15.21238843971791
SL-3 R/B                
1 13068U 82013B   26059.31298395  .00005874  00000+0  25525-3 0  9999
2 13068  81.1765 171.7573 0022178 209.2698 150.7293 15.21899798402928
SL-3 R/B                
1 13154U 82039B   26059.24743470  .00002808  00000+0  16962-3 0  9993
2 13154  81.1582 226.8474 0029940 355.2780   4.8158 15.10015130380215
